[{"OBJECT_NAME":"GHGSAT-C13","OBJECT_ID":"2025-135W","EPOCH":"2026-03-09T21:19:51.572640","MEAN_MOTION":15.20248668,"ECCENTRICITY":0.00027022,"INCLINATION":97.4646,"RA_OF_ASC_NODE":185.1231,"ARG_OF_PERICENTER":97.1001,"MEAN_ANOMALY":263.0541,"EPHEMERIS_TYPE":0,"CLASSIFICATION_TYPE":"U","NORAD_CAT_ID":64548,"ELEMENT_SET_NO":999,"REV_AT_EPOCH":3976,"BSTAR":0.00021160273,"MEAN_MOTION_DOT":4.522e-5,"MEAN_MOTION_DDOT":0},{"OBJECT_NAME":"SPEQTRE","OBJECT_ID":"2025-276DH","EPOCH":"2026-03-09T18:08:43.723104","MEAN_MOTION":15.19499769,"ECCENTRICITY":0.00013871,"INCLINATION":97.4277,"RA_OF_ASC_NODE":144.1551,"ARG_OF_PERICENTER":149.2003,"MEAN_ANOMALY":210.9313,"EPHEMERIS_TYPE":0,"CLASSIFICATION_TYPE":"U","NORAD_CAT_ID":66769,"ELEMENT_SET_NO":999,"REV_AT_EPOCH":1533,"BSTAR":0.00033482906,"MEAN_MOTION_DOT":7.042e-5,"MEAN_MOTION_DDOT":0}]
